ID,Title,Address,Latitude,Longitude,City,State,Country,"Postal Code",Message,Categories,"Click Action","Redirect URL"
1,"Colombia, South America","Bogota, Colombia",4.710988599999999,-74.072092,Bogota,Bogota,Colombia,,"<a href=""/what-we-do/projects/colombia/"">Learn More</a>","Capacity Building & Advocacy Initiatives",marker,,,yes
2,"Sierra Leone, Africa","Freetown, Sierra Leone",8.465676499999999,-13.2317225,Freetown,"Western Area","Sierra Leone",,"<a href=""/what-we-do/projects/sierra-leone/"">Learn More</a>","Capacity Building & Advocacy Initiatives",marker,,,yes
3,"Kenya, Africa","Nairobi, Kenya",-1.2920659,36.82194619999999,Nairobi,"Nairobi County",Kenya,,"<a href=""/what-we-do/projects/kenya/"">Learn More</a>","Capacity Building & Advocacy Initiatives",marker,,,yes
4,"Myanmar, Asia","Mandalay, Myanmar (Burma)",21.9588282,96.0891032,Mandalay,"Mandalay Region","Myanmar (Burma)",,"<a href=""/what-we-do/projects/engagements-southeast-asia/"">Learn More</a>","Capacity Building & Advocacy Initiatives",marker,,,yes
5,"Thailand, Asia","Bangkok, Thailand",13.7563309,100.5017651,Bangkok,Bangkok,Thailand,,"<a href=""/what-we-do/projects/engagements-southeast-asia/"">Learn More</a>","Capacity Building & Advocacy Initiatives",marker,,,yes
6,"Indonesia, Asia","Jakarta, Indonesia",-6.2087634,106.845599,Jakarta,Jakarta,Indonesia,,"<a href=""/what-we-do/projects/engagements-southeast-asia/"">Learn More</a>","Capacity Building & Advocacy Initiatives",marker,,,yes
7,"Dialog Process Project - Cambodia, Asia","Phnom Penh, Cambodia",11.5563738,104.9282099,"Phnom Penh","Phnom Penh",Cambodia,,"<a href=""/what-we-do/projects/past-projects/dialog-process-project/#cambodia"">Learn More</a>","Capacity Building & Advocacy Initiatives",marker,,,yes
8,"Dialog Process Project - Greece, Europe","Athens, Greece",37.9838096,23.7275388,"Central Athens Regional Unit",,Greece,,"<a href=""/what-we-do/projects/past-projects/dialog-process-project/#greece"">Learn More</a>","Capacity Building & Advocacy Initiatives",marker,,,yes
9,"Ecuador, South America","Quito, Ecuador",-0.1806532,-78.4678382,Quito,Pichincha,Ecuador,,"<a href=""/what-we-do/projects/past-projects/ecuador/"">Learn More</a>","Capacity Building & Advocacy Initiatives",marker,,,yes
10,"Israel, Middle East","Tel Aviv, Israel",32.0852999,34.78176759999999,"Tel Aviv-Yafo","Tel Aviv District",Israel,,"<a href=""/what-we-do/projects/past-projects/israel/"">Learn More</a>","Capacity Building & Advocacy Initiatives",marker,,,yes
11,"Liberia, Africa","Monrovia, Liberia",6.3156068,-10.8073698,Monrovia,Montserrado,Liberia,,"<a href=""/what-we-do/projects/past-projects/liberia/"">Learn More</a>","Capacity Building & Advocacy Initiatives",marker,,,yes
12,"Middle East Initiative: Wahat al-Salam / Neve Shalom, Israel","Neve Shalom, Israel",31.817427,34.978335,"Neve Shalom","Jerusalem District",Israel,,"<a href=""/what-we-do/projects/past-projects/middle-east-initiative/"">Learn More</a>","Capacity Building & Advocacy Initiatives",marker,,,yes
13,"Nepal, Asia","Kathmandu, Nepal",27.7172453,85.3239605,Kathmandu,"Central Development Region",Nepal,44600,"<a href=""/what-we-do/projects/past-projects/nepal/"">Learn More</a>","Capacity Building & Advocacy Initiatives",marker,,,yes
14,"South Sudan, Africa","Juba, South Sudan",4.859363,31.57125000000001,Juba,"Central Equatoria","South Sudan",,"<a href=""/what-we-do/projects/past-projects/south-sudan/"">Learn More</a>","Capacity Building & Advocacy Initiatives",marker,,,yes
15,"Uganda, Africa","Kampala, Uganda",0.3475964,32.5825197,Kampala,"Central Region",Uganda,,"<a href=""/what-we-do/projects/past-projects/uganda/"">Learn More</a>","Capacity Building & Advocacy Initiatives",marker,,,yes
16,"Hurricane Katrina: New Orleans, LA USA","New Orleans, LA, USA",29.95106579999999,-90.0715323,"New Orleans",Louisiana,"United States",,"<a href=""/what-we-do/projects/past-projects/united-states-america/#katrina"">Learn More</a>","Capacity Building & Advocacy Initiatives",marker,,,yes
17,"Hurricane Katrina: Mississippi, USA","Metairie, LA, USA",29.9840922,-90.1528519,Metairie,Louisiana,"United States",,"<a href=""/what-we-do/projects/past-projects/united-states-america/#katrina"">Learn More</a>","Capacity Building & Advocacy Initiatives",marker,,,yes
18,"Pittsburgh Somali Refugee Project: Lawrenceville, PA USA","Lawrenceville, Pittsburgh, PA, USA",40.467569,-79.96060779999999,Pittsburgh,Pennsylvania,"United States",15201,"<a href=""/what-we-do/projects/past-projects/united-states-america/#pittsburgh"">Learn More</a>","Capacity Building & Advocacy Initiatives",marker,,,yes
19,"Zimbabwe, Africa","Harare, Zimbabwe",-17.8216288,31.0492259,Harare,"Harare Province",Zimbabwe,,"<a href=""/what-we-do/projects/past-projects/zimbabwe/"">Learn More</a>","Capacity Building & Advocacy Initiatives",marker,,,yes
20,MBBI-LA,"Los Angeles, CA, USA",34.0522342,-118.2436849,"Los Angeles",California,"United States",,"<a href=""/who-we-are/regional-groups/mbbi-la/"">Learn More</a>","Regional Groups",marker,,,yes
21,"United States Institute of Peace","Washington D.C., DC, USA",38.9071923,-77.0368707,Washington,"District of Columbia","United States",,"<a href=""/who-we-are/organization/funders-partners/"">Learn More</a>","Partner Organizations",marker,,,yes
22,"Intan Sarit: Malaysia","Kuala Lumpur, Federal Territory of Kuala Lumpur, Malaysia",3.139003,101.686855,"Kuala Lumpur","Federal Territory of Kuala Lumpur",Malaysia,,"<a href=""/rethinking-mediation-meet-the-malaysian-mbbi-representative-intan-sarit/"">Learn More</a>","Member Spotlights",custom_link,https://mediatorsbeyondborders.org/rethinking-mediation-meet-the-malaysian-mbbi-representative-intan-sarit/,,yes
23,"9th Congress","Bali, Indonesia",-8.3405389,115.0919509,,Bali,Indonesia,,"<a href=""/news/past-congresses/#9th-congress"">Learn More</a>","Events and Trainings",marker,,,yes
24,"MBBI-New York","New York, NY, USA",40.7127753,-74.0059728,"New York","New York","United States",,"<a href=""/who-we-are/regional-groups/mbbi-new-york/"">Learn More</a>","Regional Groups",marker,,,yes
25,MBBI-Oceania,"Alice Springs NT, Australia",-23.69804199999999,133.8807471,"Alice Springs","Northern Territory",Australia,,"<a href=""/who-we-are/regional-groups/mbbi-oceania/"">Learn More</a>","Regional Groups",marker,,,yes
26,MBBI-Canada,Canada,56.130366,-106.346771,,,Canada,,"<a href=""/who-we-are/regional-groups/mbb-canada/"">Learn More</a>","Regional Groups",marker,,,yes
27,MBBI-Turkey,"İstanbul, Turkey",41.0082376,28.9783589,İstanbul,İstanbul,Turkey,,"<a href=""/who-we-are/regional-groups/mbbi-turkey/"">Learn More</a>","Regional Groups",marker,,,yes
28,"AAA-ICDR Foundation","New York, NY, USA",40.7127753,-74.0059728,"New York","New York","United States",,"<a href=""/who-we-are/organization/funders-partners/"">Learn More</a>","Partner Organizations",marker,,,yes
29,"Humanity United","San Francisco, CA, USA",37.7749295,-122.4194155,"San Francisco",California,"United States",,"<a href=""/who-we-are/organization/funders-partners/"">Learn More</a>","Partner Organizations",marker,,,yes
30,"Universitas Brawijaya","Malang, Malang City, East Java, Indonesia",-7.966620399999998,112.6326321,Malang,"East Java",Indonesia,,"<a href=""/who-we-are/organization/funders-partners/"">Learn More</a>","Partner Organizations",marker,,,yes
31,"Rotary International","Evanston, IL, USA",42.04507219999999,-87.68769689999999,"Evanston Township",Illinois,"United States",,"<a href=""/who-we-are/organization/funders-partners/"">Learn More</a>","Partner Organizations",marker,,,yes
32,"National Association for Community Mediation","Louisville, KY, USA",38.25266469999999,-85.7584557,Louisville,Kentucky,"United States",,"<a href=""/who-we-are/organization/funders-partners/"">Learn More</a>","Partner Organizations",marker,,,yes
33,"International Interfaith Peace Corps","Herndon, VA, USA",38.96955450000001,-77.3860976,Dranesville,Virginia,"United States",20170,"<a href=""/who-we-are/organization/funders-partners/"">Learn More</a>","Partner Organizations",marker,,,yes
34,"Rotarian Action Group for Peace","Portland, OR, USA",45.5051064,-122.6750261,Portland,Oregon,"United States",,"<a href=""/who-we-are/organization/funders-partners/"">Learn More</a>","Partner Organizations",marker,,,yes
35,"University of Glasgow School of Law","Glasgow, UK",55.864237,-4.251806000000001,Glasgow,Scotland,"United Kingdom",,"<a href=""/who-we-are/organization/funders-partners/"">Learn More</a>","Partner Organizations",marker,,,yes
36,"East Bay Community Foundation","Oakland, CA, USA",37.8043514,-122.2711639,Oakland,California,"United States",,"<a href=""/who-we-are/organization/funders-partners/"">Learn More</a>","Partner Organizations",marker,,,yes
37,"Samuel Rubin Foundation","Cambridge, MA, USA",42.3736158,-71.10973349999999,Cambridge,Massachusetts,"United States",,"<a href=""/who-we-are/organization/funders-partners/"">Learn More</a>","Partner Organizations",marker,,,yes
38,"Women International Leaders","Philadelphia, PA, USA",39.9525839,-75.1652215,Philadelphia,Pennsylvania,"United States",,"<a href=""/who-we-are/organization/funders-partners/"">Learn More</a>","Partner Organizations",marker,,,yes
39,"Conciliation Resources","London, UK",51.5073509,-0.1277583,London,England,"United Kingdom",,"<a href=""/who-we-are/organization/funders-partners/"">Learn More</a>","Partner Organizations",marker,,,yes
40,CAM,"Kraków, Poland",50.06465009999999,19.9449799,Kraków,"Lesser Poland Voivodeship",Poland,30,"<a href=""/who-we-are/organization/funders-partners/"">Learn More</a>","Partner Organizations",marker,,,yes
41,TIDES,"Belfast, UK",54.59728500000001,-5.930120000000001,Belfast,"Northern Ireland","United Kingdom",,"<a href=""/who-we-are/organization/funders-partners/"">Learn More</a>","Partner Organizations",marker,,,yes
42,"Local Capacities for Peace International","Nairobi, Kenya",-1.2920659,36.82194619999999,Nairobi,"Nairobi County",Kenya,,"<a href=""/who-we-are/organization/funders-partners/"">Learn More</a>","Partner Organizations",marker,,,yes
43,"Durham Global Security Institute","Durham, UK",54.77525,-1.584852,Durham,England,"United Kingdom",,"<a href=""/who-we-are/organization/funders-partners/"">Learn More</a>","Partner Organizations",marker,,,yes
44,"The Community Foundation of Greater New Haven","New Haven, CT, USA",41.308274,-72.9278835,"New Haven",Connecticut,"United States",,"<a href=""/who-we-are/organization/funders-partners/"">Learn More</a>","Partner Organizations",marker,,,yes
45,"Visions, Inc.","Dorchester, Dorchester Center, Boston, MA, USA",42.30163049999999,-71.067605,Boston,Massachusetts,"United States",,"<a href=""/who-we-are/organization/funders-partners/"">Learn More</a>","Partner Organizations",marker,,,yes
46,"The Institute for Economics & Peace","Sydney NSW, Australia",-33.8688197,151.2092955,Sydney,"New South Wales",Australia,,"<a href=""/who-we-are/organization/funders-partners/"">Learn More</a>","Partner Organizations",marker,,,yes
47,"National Coalition for Dialogue & Deliberation","Boiling Springs, PA, USA",40.14981239999999,-77.1283133,"South Middleton Township",Pennsylvania,"United States",17007,"<a href=""/who-we-are/organization/funders-partners/"">Learn More</a>","Partner Organizations",marker,,,yes
48,"Alliance for Peacebuilding","Washington, D.C., USA",38.9059849,-77.03341790000002,,"District of Columbia","United States",,"<a href=""/who-we-are/organization/funders-partners/"">Learn More</a>","Partner Organizations",marker,,,yes
49,"Global Partnership for Prevention of Armed Conflict","The Hague, Netherlands",52.0704978,4.300699899999999,"The Hague","South Holland",Netherlands,,"<a href=""/who-we-are/organization/funders-partners/"">Learn More</a>","Partner Organizations",marker,,,yes
50,"Activate Labs","Takoma Park, MD, USA",38.9778882,-77.0074765,13,Maryland,"United States",,"<a href=""/who-we-are/organization/funders-partners/"">Learn More</a>","Partner Organizations",marker,,,yes
51,"8th Congress","The Hague, Netherlands",52.0704978,4.300699899999999,"The Hague","South Holland",Netherlands,,"<a href=""/news/past-congresses/#8th-congress"">Learn More</a>","Events and Trainings",marker,,,yes
52,"7th Congress","Bucharest, Romania",44.4267674,26.1025384,Bucharest,Bucharest,Romania,,"<a href=""/news/past-congresses/#7th-congress"">Learn More</a>","Events and Trainings",marker,,,yes
53,"6th Congress","İstanbul, Turkey",41.0082376,28.9783589,İstanbul,İstanbul,Turkey,,"<a href=""/news/past-congresses/#6th-congress"">Learn More</a>","Events and Trainings",marker,,,yes
54,"5th Congress","Baltimore, MD, USA",39.2903848,-76.6121893,Baltimore,Maryland,"United States",,"<a href=""/news/past-congresses/#5th-congress"">Learn More</a>","Events and Trainings",marker,,,yes
55,"4th Congress","Los Angeles, CA, USA",34.0522342,-118.2436849,"Los Angeles",California,"United States",,"<a href=""/news/past-congresses/#4th-congress"">Learn More</a>","Events and Trainings",marker,,,yes
56,"3rd Congress","Washington, D.C., USA",38.9059849,-77.03341790000002,,"District of Columbia","United States",,"<a href=""/news/past-congresses/#3rd-congress"">Learn More</a>","Events and Trainings",marker,,,yes
57,"2nd Congress","New Orleans, LA, USA",29.95106579999999,-90.0715323,"New Orleans",Louisiana,"United States",,"<a href=""/news/past-congresses/#2nd-congress"">Learn More</a>","Events and Trainings",marker,,,yes
58,"1st Congress","Colorado, USA",39.5500507,-105.7820674,,Colorado,"United States",,"<a href=""/news/past-congresses/#1st-congress"">Learn More</a>","Events and Trainings",marker,,,yes
59,"Adaptation Without Borders","London, UK",51.5073509,-0.1277583,London,England,"United Kingdom",,"<a href=""/who-we-are/organization/funders-partners/"">Learn More</a>","Partner Organizations",marker,,,yes
60,"Listen First Project","Raleigh, NC, USA",35.7795897,-78.6381787,Raleigh,"North Carolina","United States",,"<a href=""/who-we-are/organization/funders-partners/"">Learn More</a>","Partner Organizations",marker,,,yes
61,"Weaving Community","Washington D.C., DC, USA",38.9071923,-77.0368707,Washington,"District of Columbia","United States",,"<a href=""/who-we-are/organization/funders-partners/"">Learn More</a>","Partner Organizations",marker,,,yes
62,PCDN,"Bogota, Colombia",4.710988599999999,-74.072092,Bogota,Bogota,Colombia,,"<a href=""/who-we-are/organization/funders-partners/"">Learn More</a>
","Partner Organizations",marker,,,yes
63,JAMS,"Irvine, CA, USA",33.6845673,-117.8265049,Irvine,California,"United States",,"<a href=""/who-we-are/organization/funders-partners/"">Learn More</a>
","Partner Organizations",marker,,,yes
64,"Klubosumo Johnson Borh: Liberia",Liberia,6.428055,-9.429499000000002,,,Liberia,,"<a href=""/bridging-peace-through-empowerment-the-case-of-liberia/"">Learn More</a>","Member Spotlights",custom_link,https://mediatorsbeyondborders.org/bridging-peace-through-empowerment-the-case-of-liberia/,,yes
66,"Luis Ore Ibarra: Peru",Peru,-9.189966999999998,-75.015152,,,Peru,,"<a href=""/meeting-at-the-table-peaceful-outcomes-and-satisfied-parties-member-spotlight-luis-ore/"">Learn More</a>","Member Spotlights",custom_link,https://mediatorsbeyondborders.org/meeting-at-the-table-peaceful-outcomes-and-satisfied-parties-member-spotlight-luis-ore/,,yes
67,"Dorina Prech: Kenya",Kenya,-0.023559,37.906193,,,Kenya,,"<a href=""/transforming-warriors-into-peace-guardians-member-spotlight-dorina-prech/"">Learn More</a>
","Member Spotlights",custom_link,https://mediatorsbeyondborders.org/transforming-warriors-into-peace-guardians-member-spotlight-dorina-prech/,,yes
68,"Joyce Aluoch: Kenya",Kenya,-0.023559,37.906193,,,Kenya,,"<a href=""/from-international-law-to-mediation-board-spotlight-joyce-aluoch/"">Learn More</a>","Member Spotlights",custom_link,https://mediatorsbeyondborders.org/from-international-law-to-mediation-board-spotlight-joyce-aluoch/,,yes
69,"Ken Waldron: Brisbane, Australia","Brisbane QLD, Australia",-27.4697707,153.0251235,Brisbane,Queensland,Australia,,"<a href=""/an-oceania-climate-change-advocate-member-spotlight-ken-waldron/"">Learn More</a>
","Member Spotlights",custom_link,https://mediatorsbeyondborders.org/an-oceania-climate-change-advocate-member-spotlight-ken-waldron/,,yes
70,"Khin Thida Soe: Myanmar","Myanmar (Burma)",21.916221,95.955974,,,"Myanmar (Burma)",,"<a href=""/a-peace-practitioner-overcoming-interfaith-issues-member-spotlight-khin-thida-soe/
"">Learn More</a>
","Member Spotlights",custom_link,https://mediatorsbeyondborders.org/a-peace-practitioner-overcoming-interfaith-issues-member-spotlight-khin-thida-soe/,,yes
71,"Ajoeb Mohamedajoeb: Netherlands",Netherlands,52.13263300000001,5.291266,,,Netherlands,,"<a href=""/building-inclusive-and-intercultural-bridges-member-spotlight-ajoeb-mohamedajoeb/"">Learn More</a>
","Member Spotlights",custom_link,https://mediatorsbeyondborders.org/building-inclusive-and-intercultural-bridges-member-spotlight-ajoeb-mohamedajoeb/,,yes
72,"Ayo Ayoola-Amale: Ghana",Ghana,7.946527,-1.023194,,,Ghana,,"<a href=""/advocating-for-peace-in-a-volatile-world-ombuds-spotlight-ayo-ayoola-amale/"">Learn More</a>
","Member Spotlights",custom_link,https://mediatorsbeyondborders.org/advocating-for-peace-in-a-volatile-world-ombuds-spotlight-ayo-ayoola-amale/,,yes
73,"Andreas Velthuizen: South Africa","Pretoria, South Africa",-25.7478676,28.2292712,Pretoria,Gauteng,"South Africa",,"<a href=""/restoring-relationships-through-cultural-competency-member-spotlight-andreas-velthuizen/"">Learn More</a>
","Member Spotlights",custom_link,https://mediatorsbeyondborders.org/restoring-relationships-through-cultural-competency-member-spotlight-andreas-velthuizen/,,yes
74,"Raihal Fajri: Indonesia",Indonesia,-0.789275,113.921327,,,Indonesia,,"<a href=""/inclusion-of-women-in-peace-processes-member-spotlight-raihal-fajri/"">Learn More</a>
","Member Spotlights",custom_link,https://mediatorsbeyondborders.org/inclusion-of-women-in-peace-processes-member-spotlight-raihal-fajri/,,yes
75,"Hussam Bazar'a: Yemen",Yemen,15.552727,48.516388,,,Yemen,,"<a href=""/covid-19-prevention-projects-in-yemen-member-spotlight-hussam-bazaraa/"">Learn More</a>
","Member Spotlights",custom_link,https://mediatorsbeyondborders.org/covid-19-prevention-projects-in-yemen-member-spotlight-hussam-bazaraa/,,yes
76,"Gaelle Ezan: France",France,46.227638,2.213749,,,France,,"<a href=""/from-energy-law-to-mediation-member-spotlight-gaelle-ezan/"">Learn More</a>
","Member Spotlights",custom_link,https://mediatorsbeyondborders.org/from-energy-law-to-mediation-member-spotlight-gaelle-ezan/,,yes
77,"Ian Lancaster: Canada","Grafton, ON, Canada",43.992634,-78.023383,Alnwick/Haldimand,Ontario,Canada,"K0K 2G0","<a href=""/member-spotlight-ian-e-lancaster-end-of-life-care/"">Learn More</a>
","Member Spotlights",custom_link,https://mediatorsbeyondborders.org/member-spotlight-ian-e-lancaster-end-of-life-care/,,yes
78,"Caryl Lashley: Bahamas",Bahamas,25.03428,-77.39627999999999,,,"The Bahamas",,"<a href=""/relationships-matter-member-spotlight-caryl-lashley"">Learn More</a>
","Member Spotlights",custom_link,https://mediatorsbeyondborders.org/relationships-matter-member-spotlight-caryl-lashley/,,yes
79,"Lisanne Iriks: Perth, Australia","Perth WA, Australia",-31.9505269,115.8604572,Perth,"Western Australia",Australia,,"<a href=""/a-multifaceted-mediator-throughout-australia-member-spotlight-lisanne-iriks/"">Learn More</a>
","Member Spotlights",custom_link,https://mediatorsbeyondborders.org/a-multifaceted-mediator-throughout-australia-member-spotlight-lisanne-iriks/,,yes
80,"Louis Cohen: Florida","Florida, USA",27.6648274,-81.5157535,,Florida,"United States",,"<a href=""/a-bottomless-well-of-patience-and-empathy-member-spotlight-louis-cohen/"">Learn More</a>
","Member Spotlights",custom_link,https://mediatorsbeyondborders.org/a-bottomless-well-of-patience-and-empathy-member-spotlight-louis-cohen/,,yes
81,"Lim Heang Heng: Cambodia",Cambodia,12.565679,104.990963,,,Cambodia,,"<a href=""/the-power-of-positivism-member-spotlight-lim-heang-heng/"">Learn More</a>
","Member Spotlights",custom_link,https://mediatorsbeyondborders.org/the-power-of-positivism-member-spotlight-lim-heang-heng/,,yes
82,"Ramon Tena Pera: Andorra",Andorra,42.506285,1.521801,,,Andorra,,"<a href=""/do-it-through-dialogue-member-spotlight-ramon-tena-pera/"">Learn More</a>
","Member Spotlights",custom_link,https://mediatorsbeyondborders.org/do-it-through-dialogue-member-spotlight-ramon-tena-pera/,,yes
83,"Eyas Shbeta: Israel",Israel,31.046051,34.851612,,,Israel,,,"Member Spotlights",custom_link,https://mediatorsbeyondborders.org/the-secret-recipe-for-coexistence-member-spotlight-eyas-shbeta/,,yes
84,"Claire Holland: Townsville, Australia","Townsville QLD, Australia",-19.2589635,146.8169483,Townsville,Queensland,Australia,,"<a href=""/capacity-building-approaches-for-dialogue-and-conflict-resolution-member-spotlight-claire-holland/"">Learn More</a>
","Member Spotlights",custom_link,https://mediatorsbeyondborders.org/capacity-building-approaches-for-dialogue-and-conflict-resolution-member-spotlight-claire-holland/,,yes
85,"David Savage: Vancouver, Canada","Vancouver, BC, Canada",49.2827291,-123.1207375,Vancouver,"British Columbia",Canada,,"<a href=""/publishing-guides-on-collaborative-skill-building-member-spotlight-david-savage/"">Learn More</a>
","Member Spotlights",custom_link,https://mediatorsbeyondborders.org/publishing-guides-on-collaborative-skill-building-member-spotlight-david-savage/,,yes
86,"Charmaine Mae: Philippines",Philippines,12.879721,121.774017,,,Philippines,,"<a href=""/holding-space-in-mediation-member-spotlight-charmaine-mae-dahapioso-baconga/"">Learn More</a>
","Member Spotlights",custom_link,https://mediatorsbeyondborders.org/holding-space-in-mediation-member-spotlight-charmaine-mae-dahapioso-baconga/,,yes
87,"Sheila Kambobe: Zambia","Lusaka, Zambia",-15.3875259,28.3228165,Lusaka,"Lusaka Province",Zambia,,"<a href=""/fostering-peace-and-community-resilience-in-south-sudan-member-spotlight-sheila-kambobe/"">Learn More</a>
","Member Spotlights",marker,https://mediatorsbeyondborders.org/fostering-peace-and-community-resilience-in-south-sudan-member-spotlight-sheila-kambobe/,,yes
88,"Lorelei Higgins: Calgary, Canada","Calgary, AB, Canada",51.04473309999999,-114.0718831,Calgary,Alberta,Canada,,"<a href=""/weaving-between-worlds-member-spotlight-lorelei-higgins/"">Learn More</a>
","Member Spotlights",marker,https://mediatorsbeyondborders.org/weaving-between-worlds-member-spotlight-lorelei-higgins/,,yes
89,"Mary Hellwig: St. Louis, MO","St. Louis, MO, USA",38.6270025,-90.19940419999999,"St. Louis",Missouri,"United States",,"<a href=""/mediation-empowers-member-spotlight-mary-hellwig/"">Learn More</a>
","Member Spotlights",marker,https://mediatorsbeyondborders.org/mediation-empowers-member-spotlight-mary-hellwig/,,yes
90,"Kimberly Best: Nashville, TN","Nashville, TN, USA",36.1626638,-86.7816016,Nashville,Tennessee,"United States",,"<a href=""/a-heart-for-peace-member-spotlight-kimberly-best/"">Learn More</a>
","Member Spotlights",marker,https://mediatorsbeyondborders.org/a-heart-for-peace-member-spotlight-kimberly-best/,,yes
91,"Barbara Barnes: Helena. MT","Helena, MT, USA",46.5891452,-112.0391057,Helena,Montana,"United States",,"<a href=""/transforming-conflict-to-transform-relationships-member-spotlight-barbara-barnes/"">Learn More</a>
","Member Spotlights",marker,https://mediatorsbeyondborders.org/transforming-conflict-to-transform-relationships-member-spotlight-barbara-barnes/,,yes
92,"Gerry O'Sullivan: Ireland","Fahamore, County Kerry, Ireland",52.3022873,-10.0385437,,"County Kerry",Ireland,,"<a href=""/giving-people-a-voice-member-spotlight-gerry-osullivan/"">Learn More</a>
","Member Spotlights",marker,https://mediatorsbeyondborders.org/giving-people-a-voice-member-spotlight-gerry-osullivan/,,yes
94,"Jean Bagh: Ukraine",Ukraine,48.379433,31.16558,,,Ukraine,,"<a href=""/building-trust-in-a-trustless-environment-member-spotlight-jean-bagh/"">Learn More</a>
","Member Spotlights",marker,https://mediatorsbeyondborders.org/building-trust-in-a-trustless-environment-member-spotlight-jean-bagh/,,yes
95,"Emilia Miki: Cameroon","Yaounde, Cameroon",3.8480325,11.5020752,Yaounde,Centre,Cameroon,,"<a href=""/women-for-peace-member-spotlight-emily-miki/"">Learn More</a>
","Member Spotlights",marker,https://mediatorsbeyondborders.org/women-for-peace-member-spotlight-emily-miki/,,yes
96,"Elahe Amani: Tehran, Iran","Tehran, Tehran Province, Iran",35.6891975,51.3889736,Tehran,"Tehran Province",Iran,,"<a href=""/peacebuilder-spotlight-elahe-amani/"">Learn More</a>
","Member Spotlights",marker,https://mediatorsbeyondborders.org/peacebuilder-spotlight-elahe-amani/,,yes
97,"Sameer Shah: Delhi, India","Delhi, India",28.6862738,77.2217831,Delhi,Delhi,India,,"<a href=""/changing-mindsets-on-how-we-conceive-dispute-resolution-member-spotlight-sameer-shah/"">Learn More</a>
","Member Spotlights",marker,https://mediatorsbeyondborders.org/changing-mindsets-on-how-we-conceive-dispute-resolution-member-spotlight-sameer-shah/,,yes
98,"Indrani Govender: Durban, South Africa","Durban, South Africa",-29.85868039999999,31.0218404,Durban,KwaZulu-Natal,"South Africa",,"<a href=""/restoring-justice-to-marginalized-communities-member-spotlight-indrani-govender/"">Learn More</a>
","Member Spotlights",marker,https://mediatorsbeyondborders.org/restoring-justice-to-marginalized-communities-member-spotlight-indrani-govender/,,yes
99,"Howard Le Cornu: United Kingdom","Channel Islands, Guernsey",49.5,-2.5,,,Guernsey,,"<a href=""/connecting-people-creating-opportunity-member-spotlight-howard-le-cornu/"">Learn More</a>
","Member Spotlights",marker,https://mediatorsbeyondborders.org/connecting-people-creating-opportunity-member-spotlight-howard-le-cornu/,,yes
100,"Todd Lopez: Santa Fe, NM","Santa Fe, NM, USA",35.6869752,-105.937799,"Santa Fe","New Mexico","United States",,"<a href=""/meet-the-board-todd-lopez/"">Learn More</a>
","Member Spotlights",marker,https://mediatorsbeyondborders.org/meet-the-board-todd-lopez/,,yes
101,"Somia Sadiq: Winnipeg, Canada","Winnipeg, MB, Canada",49.895136,-97.13837439999999,Winnipeg,Manitoba,Canada,,"<a href=""/re-establishing-their-forgotten-voice-justice-for-indigenous-communities-member-spotlight-somia-sadiq/"">Learn More</a>
","Member Spotlights",marker,https://mediatorsbeyondborders.org/re-establishing-their-forgotten-voice-justice-for-indigenous-communities-member-spotlight-somia-sadiq/,,yes
102,"Peter Corne: Shanghai, China","Shanghai, China",31.230416,121.473701,Shanghai,Shanghai,China,,"<a href=""/reconnecting-with-mediation-member-spotlight-peter-corne/"">Learn More</a>
","Member Spotlights",marker,https://mediatorsbeyondborders.org/reconnecting-with-mediation-member-spotlight-peter-corne/,,yes
103,"Adama Sarr: Dakar, Senegal","Dakar, Senegal",14.716677,-17.4676861,Dakar,"Dakar Region",Senegal,,"<a href=""/ensuring-neutrality-and-sustainability-member-spotlight-adama-sarr/"">Learn More</a>
","Member Spotlights",marker,https://mediatorsbeyondborders.org/ensuring-neutrality-and-sustainability-member-spotlight-adama-sarr/,,yes
104,"Michelle Avaroma: Bolivia",Bolivia,-16.290154,-63.58865299999999,,,Bolivia,,"<a href=""/forever-impacting-youth-through-peacejam-member-spotlight-michelle-avaroma/"">Learn More</a>
","Member Spotlights",marker,https://mediatorsbeyondborders.org/forever-impacting-youth-through-peacejam-member-spotlight-michelle-avaroma/,,yes
105,"Usha Poonawalla: Pune, India","Pune, Maharashtra, India",18.5204303,73.8567437,Pune,Maharashtra,India,,"<a href=""/women-in-mediation-member-spotlight-usha-poonawalla/"">Learn More</a>
","Member Spotlights",custom_link,https://mediatorsbeyondborders.org/women-in-mediation-member-spotlight-usha-poonawalla/,,yes
106,"Bhavya Mahajan: Mumbai, India","Mumbai, Maharashtra, India",19.0759837,72.8776559,Mumbai,Maharashtra,India,,"<a href=""/keeping-the-humanness-alive-even-amidst-conflict-member-spotlight-bhavya-mahajan/"">Learn More</a>
","Member Spotlights",custom_link,https://mediatorsbeyondborders.org/keeping-the-humanness-alive-even-amidst-conflict-member-spotlight-bhavya-mahajan/,,yes
107,"Howard Le Cornu: Jersey, UK","Saint Helier, Jersey",49.2074637,-2.1952207,"Saint Peter","St. Peter",Jersey,"JE1 1BY",,"Member Spotlights",custom_link,https://mediatorsbeyondborders.org/connecting-people-creating-opportunity-member-spotlight-howard-le-cornu/,,yes
108,"Gwendolyn Myers: Liberia",Liberia,6.31887075222501,-10.791803687500002,"Uray Farm Community",Montserrado,Liberia,,,"Member Spotlights",custom_link,https://mediatorsbeyondborders.org/ensuring-neutrality-and-sustainability-member-spotlight-adama-sarr/,,yes
109,"Network for Religious and Traditional Peacemakers","Helsinki, Finland",60.16985569999999,24.938379,Helsinki,,Finland,,,"Partner Organizations",custom_link,https://www.peacemakersnetwork.org/,,yes
110,"Wayne Marriott: New Zealand","Christchurch, New Zealand",-43.5320214,172.6305589,Christchurch,Canterbury,"New Zealand",,,"Member Spotlights",custom_link,https://mediatorsbeyondborders.org/the-intersections-of-mediation-member-spotlight-wayne-marriott/,,yes
111,"Michiko Kurdoa: Japan","Tokyo, Japan",35.6761919,139.6503106,,Tokyo,Japan,,,"Member Spotlights",custom_link,https://mediatorsbeyondborders.org/peacebuilding-with-emotional-intelligence-member-spotlight-michiko-kuroda/,,yes
112,"Nicholas Sadhu: Fiji",Fiji,-18.13671841540575,178.44955348437495,Suva,"Central Division",Fiji,,,"Member Spotlights",custom_link,https://mediatorsbeyondborders.org/dispute-system-design-and-traditional-conflict-resolution-member-spotlight-nicholas-sadhu/,,yes
113,"Fahmi Shahab: Jakarta, Indonesia","Jakarta, Indonesia",-6.2087634,106.845599,Jakarta,Jakarta,Indonesia,,,"Member Spotlights",custom_link,https://mediatorsbeyondborders.org/mediation-in-indonesia-a-leadership-perspective-member-spotlight-fahmi-shahab/,,yes
114,"Emma Nowotny: Bolivia","La Paz, Bolivia",-16.489689,-68.11929359999999,"La Paz","La Paz Department",Bolivia,,,"Member Spotlights",custom_link,https://mediatorsbeyondborders.org/youth-centric-peacebuilding-member-spotlight-emma-nowotny/,,yes
115,"Claudia Sanchez: Colombia","Bogotá, Bogota, Colombia",4.710988599999999,-74.072092,Bogotá,Bogota,Colombia,,,"Member Spotlights",custom_link,https://mediatorsbeyondborders.org/mediation-in-bogota-member-spotlight-claudia-sanchez/,,yes
116,"Isadora Darwich: Belo Horizonte","Belo Horizonte, State of Minas Gerais, Brazil",-19.919052,-43.9386685,"Belo Horizonte","State of Minas Gerais",Brazil,,,"Member Spotlights",custom_link,https://mediatorsbeyondborders.org/it-will-mediation-activism-and-social-entrepreneurship-member-spotlight-isadora-darwich/,,yes
117,"James Dong: South Sudan","Juba, South Sudan",4.859363,31.57125,Juba,"Central Equatoria","South Sudan",,,"Member Spotlights",custom_link,https://mediatorsbeyondborders.org/mediation-in-south-sudan-a-christian-perspective-member-spotlight-james-ninrew-dong/,,yes
118,"Reiny Ortega Cubas: Mexico","Mexico City, Mexico",19.2464696,-99.1013498,,"Mexico City",Mexico,,,"Member Spotlights",custom_link,https://mediatorsbeyondborders.org/getting-in-touch-with-our-feelings-and-increasing-visibility-member-spotlight-reiny-ortega-cubas/,,yes
119,"Jennifer Kyllergård: Stockholm","Stockholm, Sweden",59.32932349999999,18.0685808,Stockholm,"Stockholm County",Sweden,,,"Member Spotlights",custom_link,https://mediatorsbeyondborders.org/law-mediation-and-human-rights-member-spotlight-jennifer-kyllergard/,,yes
120,"Siham Boda: Pretoria, South Africa","Pretoria, South Africa",-25.7478676,28.2292712,Pretoria,Gauteng,"South Africa",,,"Member Spotlights",custom_link,https://mediatorsbeyondborders.org/mediation-with-empathy-and-assertiveness-member-spotlight-siham-boda/,,yes
121,"Natalija Vojno: Bosnia and Herzegovina","Bosnia and Herzegovina",43.915886,17.679076,,,"Bosnia and Herzegovina",,,"Member Spotlights",custom_link,https://mediatorsbeyondborders.org/watershed-based-governance-and-positive-peace-member-spotlight-natalija-vojno/,,yes
122,"Liliana Pimentel: Brazil","Rio de Janeiro, State of Rio de Janeiro, Brazil",-22.98272494552301,-43.22782814062501,,"Rio de Janeiro",Brazil,22240-140,,"Member Spotlights",custom_link,https://mediatorsbeyondborders.org/changing-hats-is-incredibly-crucial-member-spotlight-liliana-pimentel/,,yes
123,"Kathleen DeWitt: Iraq","Duhok, Iraq",36.8632107,42.9884805,Dihok,"Kurdistan Region",Iraq,,,"Member Spotlights",custom_link,https://mediatorsbeyondborders.org/a-new-angle-to-mediation-member-spotlight-kathleen-e-dewitt/,,yes
124,"Jasmina Krštenić: Serbia",Serbia,43.9532816977361,20.566405875000008,Ivanovo,Vojvodina,Serbia,,,"Member Spotlights",custom_link,https://mediatorsbeyondborders.org/building-a-worldwide-bridge-of-understanding-member-spotlight-jasmina-krstenic,,yes
125,"Avinder Laroya: Geneva","Geneva, Switzerland",46.2043907,6.1431577,Geneva,Geneva,Switzerland,,,"Member Spotlights",custom_link,https://mediatorsbeyondborders.org/rebranding-and-recreating-yourself-as-a-mediator-member-spotlight-avinder-laroya/,,yes
126,"Said Nachet: Rabat","Rabat, Morocco",33.9715904,-6.8498129,Rabat,Rabat-Salé-Kénitra,Morocco,,,"Member Spotlights",custom_link,https://mediatorsbeyondborders.org/the-five-pillars-of-mediation-member-spotlight-said-nachet/,,yes
127,"Meltem Kilicaslan Greisman: Montreal","Montreal, QC, Canada",45.5018869,-73.56739189999999,Montréal,Quebec,Canada,,,"Member Spotlights",custom_link,https://mediatorsbeyondborders.org/alternative-approaches-to-peace-member-spotlight-meltem-kilicaslan-greisman/,,yes
128,"Deniz Kite: Istanbul","İstanbul, Turkey",41.0082376,28.9783589,İstanbul,İstanbul,Turkey,,,"Member Spotlights",custom_link,https://mediatorsbeyondborders.org/certifying-global-mediators-and-negotiators-member-spotlight-deniz-kite-guner/,,yes
129,"Duniya Stanikzai: Kabul","Kabul University, Kabul, Afghanistan",34.51741639999999,69.1359186,Kabul,Kabul,Afghanistan,,,"Member Spotlights",custom_link,https://mediatorsbeyondborders.org/overcoming-barriers-and-empowering-through-education-member-spotlight-duniya-stanikzai/,,yes
130,"Bianca Motley Broom: College Park, GA","College Park, GA, USA",33.6534427,-84.4493725,"College Park",Georgia,"United States",,,"Member Spotlights",custom_link,https://mediatorsbeyondborders.org/turn-down-talking-turn-up-listening-member-spotlight-bianca-motley-broom/,,yes
131,"Kim Kortlepel: Berlin","Berlin, Germany",52.52000659999999,13.404954,"Kreisfreie Stadt Berlin",Berlin,Germany,,,"Member Spotlights",custom_link,https://mediatorsbeyondborders.org/keeping-the-balance-member-spotlight-kim-kortlepel/,,yes
132,"Dianne Williams: Trinidad and Tobago","Trinidad and Tobago",10.691803,-61.222503,,,"Trinidad and Tobago",,,"Member Spotlights",custom_link,https://mediatorsbeyondborders.org/ending-a-vicious-cycle-a-deeper-dive-into-the-root-causes-of-conflict-dianne-williams/,,yes
133,"Ignacio Martinez: Spain","Madrid, Spain",40.4167754,-3.7037902,Madrid,"Community of Madrid",Spain,,,"Member Spotlights",custom_link,https://mediatorsbeyondborders.org/from-law-to-mediation-member-spotlight-ignacio-gonzalez-martinez/,,yes
134,"Parisa Sekandari: Herat","Herat, Afghanistan",34.352865,62.20402869999999,Herat,Herat,Afghanistan,,,"Member Spotlights",custom_link,https://mediatorsbeyondborders.org/education-as-a-tool-for-peacebuilding-in-afghanistan-member-spotlight-parisa-sekandari/,,yes
135,"Fernando Andrade: Chile","Santiago, Chile",-33.4488897,-70.6692655,Santiago,"Santiago Metropolitan Region",Chile,,,"Member Spotlights",custom_link,https://mediatorsbeyondborders.org/creating-a-department-of-peacebuilding-member-spotlight-fernando-andrade/,,yes
136,"Tzofnat Peleg-Baker: Portland","Portland, OR, USA",45.515232,-122.6783853,Portland,Oregon,"United States",,,"Member Spotlights",custom_link,https://mediatorsbeyondborders.org/a-fresh-cultural-relational-outlook-of-conflict-member-spotlight-tzofnat-peleg-baker/,,yes
137,"Fabiano Sannino: São Paolo","São Paulo, State of São Paulo, Brazil",-23.5557714,-46.6395571,"São Paulo","State of São Paulo",Brazil,,,"Member Spotlights",custom_link,https://mediatorsbeyondborders.org/transforming-businesses-and-transforming-conflict-member-spotlight-fabiano-sannino/,,yes
138,"Bob Stains: Danvers, MA","Danvers, MA, USA",42.5750009,-70.93212199999999,Topsfield,Massachusetts,"United States",01923,,"Member Spotlights",custom_link,https://mediatorsbeyondborders.org/transforming-conflict-through-dialogue-mbbi-member-spotlight-bob-stains/,,yes
139,"Bob Creo: Pittsburgh, PA","Pittsburgh, PA, USA",40.44062479999999,-79.9958864,Pittsburgh,Pennsylvania,"United States",,,"Member Spotlights",custom_link,https://mediatorsbeyondborders.org/illuminating-the-path-towards-peace-member-spotlight-bob-creo/,,yes
140,"Anlan Cheney: Nebraska","UNMC, Emile Street, Omaha, Nebraska, USA",41.25485490000001,-95.9759165,Omaha,Nebraska,"United States",68198,,"Member Spotlights",custom_link,https://mediatorsbeyondborders.org/the-intersection-of-health-and-peacebuilding-member-spotlight-anlan-cheney/,,yes
141,"BJ Guiden: Dallas, TX","Dallas, TX, USA",32.7766642,-96.79698789999999,Dallas,Texas,"United States",,,"Member Spotlights",custom_link,https://mediatorsbeyondborders.org/agreeing-to-disagree-member-spotlight-bj-guiden/,,yes
142,"Laura Roberts: Houston, TX","Houston, TX, USA",29.7604267,-95.3698028,Houston,Texas,"United States",,,"Member Spotlights",custom_link,https://mediatorsbeyondborders.org/between-restorative-and-immigration-justice-member-spotlight-laura-roberts/,,yes
143,"Chuck Fitzgerald: Phoenix, AZ","Phoenix, AZ, USA",33.4483771,-112.0740373,Phoenix,Arizona,"United States",,,"Member Spotlights",custom_link,https://mediatorsbeyondborders.org/pursuing-peace-conference-member-spotlight-chuck-fitzgerald/,,yes
144,"Rosa Zubizarreta: Peru","Lima, Peru",-12.0463731,-77.042754,Lima,"Callao Region",Peru,,,"Member Spotlights",custom_link,https://mediatorsbeyondborders.org/education-translation-and-facilitation-member-spotlight-rosa-zubizarreta/,,yes
145,"Christine Peringer: Lavant, ON, Canada","Lavant, ON, Canada",45.065223,-76.64808599999999,"Lanark Highlands",Ontario,Canada,"K0G 1K0",,"Member Spotlights",custom_link,https://mediatorsbeyondborders.org/the-art-of-the-possible-member-spotlight-christine-peringer/,,yes
146,"Louisa Garbo: Gulf Islands","Gulf Islands, British Columbia, Canada",48.88928786319484,-123.4704321493226,,"British Columbia",Canada,,,"Member Spotlights",custom_link,https://mediatorsbeyondborders.org/the-yin-and-yang-of-mediation-member-spotlight-louisa-garbo/,,yes
147,"Alicia Kuin: Toronto","Osgoode Hall Law School, Keele St, North York, ON, Canada",43.7706164,-79.50511139999999,Toronto,Ontario,Canada,"M3J 1P3",,"Member Spotlights",custom_link,https://mediatorsbeyondborders.org/a-career-mediator-member-spotlight-alicia-kuin/,,yes
148,"Kelly Rico: Kitchener-Waterloo","Kitchener, Waterloo Region, ON, Canada",43.4516395,-80.4925337,Kitchener,Ontario,Canada,,,"Member Spotlights",custom_link,https://mediatorsbeyondborders.org/restorative-justice-and-conflict-transformation-member-spotlight-kelly-rico/,,yes
149,"Roshan Melwani: Hong Kong","Hong Kong Island, Hong Kong",22.2587586,114.1910696,,"Hong Kong Island","Hong Kong",,,"Member Spotlights",custom_link,https://mediatorsbeyondborders.org/inclusivity-in-mediation-member-spotlight-roshan-melwani/,,yes
150,"Brigid Inder: Auckland","Auckland, New Zealand",-36.85088270000001,174.7644881,Auckland,Auckland,"New Zealand",,,"Member Spotlights",custom_link,https://mediatorsbeyondborders.org/maintaining-trust-based-relationships-member-spotlight-brigid-inder-obe/,,yes
151,"Janet Autherine James-Mahon: Jamaica",Jamaica,18.109581,-77.297508,,,Jamaica,,https://mediatorsbeyondborders.org/inspiring-peace-in-others-member-spotlight-janet-autherine-james-mahon/,"Member Spotlights",custom_link,https://mediatorsbeyondborders.org/inspiring-peace-in-others-member-spotlight-janet-autherine-james-mahon/,,yes
152,"Michelle Arbid: Beirut","Beirut, Lebanon",33.8937913,35.5017767,Beirut,"Beirut Governorate",Lebanon,,,"Member Spotlights",custom_link,https://mediatorsbeyondborders.org/conflict-constructive-member-spotlight-michelle-arbid/,,yes
153,"Brown Masingati: Malawi",Malawi,-13.168743589621188,34.037853125000005,Chiluvya,"Central Region",Malawi,,,"Member Spotlights",custom_link,https://mediatorsbeyondborders.org/standing-for-children-protection-and-women-empowerment-in-malawi-member-spotlight-brown-masingati/,,yes
154,"Ben Schoeman: Cape Town","Cape Town, South Africa",-33.9248685,18.4240553,"Cape Town","Western Cape","South Africa",,,"Member Spotlights",custom_link,https://mediatorsbeyondborders.org/promoting-the-mediation-process-member-spotlight-ben-schoeman/,,yes
155,"Chehab Elawar: Beirut","Beirut, Lebanon",33.8937913,35.5017767,Beirut,"Beirut Governorate",Lebanon,,,"Member Spotlights",custom_link,https://mediatorsbeyondborders.org/a-resilient-rotarian-member-spotlight-chehab-elawar/,,yes
156,"Fiona White: New Zealand","Dunedin, New Zealand",-45.8795455,170.5005957,Dunedin,Otago,"New Zealand",,,"Member Spotlights",custom_link,https://mediatorsbeyondborders.org/a-toolbox-for-conflict-and-peace-member-spotlight-fiona-white/,,yes
157,"Macarena Mata: UK","Northaw, Potters Bar, UK",51.7049829,-0.151439,Northaw,England,"United Kingdom",EN6,,"Member Spotlights",custom_link,https://mediatorsbeyondborders.org/evolving-humanity-and-protecting-the-planet-member-spotlight-macarena-mata/,,yes
158,"Alpha Umar Barrie: Liberia","Monrovia, Liberia",6.3156068,-10.8073698,Monrovia,Montserrado,Liberia,,,"Member Spotlights",custom_link,https://mediatorsbeyondborders.org/peacebuilder-spotlight-alpha-umarr-barrie/,,yes
159,"Barbara Melamed: Hawaii","Hawaii, USA",19.8986819,-155.6658568,,Hawaii,"United States",,,"Member Spotlights",custom_link,https://mediatorsbeyondborders.org/membership-spotlight-barbara-g-melamed-ph-d-abpp/,,yes
160,"Amporn Marddent: Thailand",Thailand,15.870032,100.992541,,,Thailand,,,"Member Spotlights",custom_link,https://mediatorsbeyondborders.org/membership-spotlight-amporn-marddent/,,yes
161,"Shadia Marhaban: Aceh, Indonesia","Aceh, Indonesia",4.695135,96.7493993,Aceh,Aceh,Indonesia,,https://mediatorsbeyondborders.org/shadia-marhaban/,"Member Spotlights",custom_link,https://mediatorsbeyondborders.org/shadia-marhaban/,,yes
162,"Rozana Al-Tayyar: Jeddah, Saudi Arabia","Jeddah Saudi Arabia",21.485811,39.19250479999999,Jeddah,"Makkah Province","Saudi Arabia",,,"Member Spotlights",custom_link,https://mediatorsbeyondborders.org/peacebuilder-spotlight-rozana-al-tayyar-miracles-mediation/,,yes
163,"Estera Borcsa: Romania",Romania,45.943161,24.96676,,,Romania,,,"Member Spotlights",custom_link,https://mediatorsbeyondborders.org/mediation-is-resolution-member-spotlight-estera-borsca/,,yes
164,"Archana A. Medhekar: Toronto","Toronto, ON, Canada",43.653226,-79.3831843,Toronto,Ontario,Canada,,,"Member Spotlights",custom_link,https://mediatorsbeyondborders.org/joining-mbbi-felt-like-going-home-member-spotlight-archana-medhekar/,,yes
165,"Colins Edozie Imoh: Nigeria/Ohio","Toledo, OH, USA",41.6528052,-83.5378674,Toledo,Ohio,"United States",,,"Member Spotlights",custom_link,https://mediatorsbeyondborders.org/the-more-you-know-the-more-you-are-able-to-change-your-community-peacebuilder-spotlight-colins-imoh/,,yes
166,"Joy Mbaabu: Nairobi","Nairobi, Kenya",-1.2920659,36.8219462,Nairobi,"Nairobi County",Kenya,,,"Member Spotlights",custom_link,https://mediatorsbeyondborders.org/event/a-practitioners-perspective-on-the-values-that-make-for-a-successful-mediation/,,yes
167,"Esma Yilmaz: Türkiye","Ankara, Türkiye",39.9333635,32.8597419,Ankara,Ankara,Türkiye,,,"Member Spotlights",custom_link,https://mediatorsbeyondborders.org/pairing-logistics-with-negotiation-member-spotlight-esma-deniz-yilmaz/,,yes
168,"Dennis Phua: Singapore",Singapore,1.352083,103.819836,,,Singapore,,,"Member Spotlights",custom_link,https://mediatorsbeyondborders.org/welcome-to-the-mbbi-2019-congress-in-bali-member-spotlight-dennis-phua/,,yes
169,"Joseph Siegel: New York","Hastings-on-Hudson, NY, USA",40.994542,-73.8787461,Greenburgh,"New York","United States",10706,,"Member Spotlights",custom_link,https://mediatorsbeyondborders.org/harmonizing-interests-to-confront-climate-change-member-spotlight-joseph-siegel/,,yes
170,"Ei Ei Samai: Myanmar","Myanmar (Burma)",21.916221,95.955974,,,"Myanmar (Burma)",,,"Member Spotlights",custom_link,https://mediatorsbeyondborders.org/culture-design-peacebuilding-and-light-member-spotlight-ei-ei-samai/,,yes
171,"Charalee Graydon: Montpellier","Montpellier, France",43.610769,3.876716,Montpellier,Occitanie,France,,,"Member Spotlights",custom_link,https://mediatorsbeyondborders.org/sustainable-solutions-to-climate-change-member-spotlight-charalee-graydon/,,yes
172,"Maureen Inglis: Merriton","Merriton SA, Australia",-33.432293,138.1535034,Merriton,"South Australia",Australia,5523,,"Member Spotlights",custom_link,https://mediatorsbeyondborders.org/drawing-out-solutions-from-the-people-member-spotlight-maureen-inglis/,,yes
173,"Suzanne Sherkin: Toronto","Toronto, ON, Canada",43.77035852343189,-79.72376047187501,Brampton,Ontario,Canada,"L6P 1B2",,"Member Spotlights",custom_link,https://mediatorsbeyondborders.org/a-sixth-sense-every-mediator-should-have-member-spotlight-suzanne-sherkin/,,yes
174,"Bruce Kravitz: Oklahoma","Oklahoma City, OK, USA",35.4675602,-97.5164276,"Oklahoma City",Oklahoma,"United States",,,"Member Spotlights",custom_link,https://mediatorsbeyondborders.org/dream-big-take-small-steps-member-spotlight-bruce-kravitz/,,yes
175,"Victoria Gray: Utah","St. George, UT, USA",37.0965278,-113.5684164,"St. George",Utah,"United States",,,"Member Spotlights",custom_link,https://mediatorsbeyondborders.org/meet-the-board-victoria-gray/,,yes
176,"Britt Sheinbaum: Wilmington, NC","Wilmington, NC, USA",34.2103894,-77.8868117,Wilmington,"North Carolina","United States",,,"Member Spotlights",custom_link,https://mediatorsbeyondborders.org/following-the-cookie-crumbs-on-the-path-to-success-member-spotlight-britt-sheinbaum/,,yes
177,"Miriah Russo Kelly: New Haven","New Haven, CT, USA",41.308274,-72.9278835,"New Haven",Connecticut,"United States",,,"Member Spotlights",custom_link,https://mediatorsbeyondborders.org/communication-and-climate-action-member-spotlight-miriah-russo-kelly/,,yes
178,"Lynn Hunt: Ridgefield","Ridgefield, WA, USA",45.8156638,-122.6908502,Ridgefield,Washington,"United States",98642,,"Member Spotlights",custom_link,https://mediatorsbeyondborders.org/mediation-in-the-workplace-member-spotlight-lynn-hunt/,,yes
179,"Jax Richards: Oregon","Corvallis, OR, USA",44.5645659,-123.2620435,Corvallis,Oregon,"United States",,,"Member Spotlights",custom_link,https://mediatorsbeyondborders.org/youth-resilience-and-advocacy-member-spotlight-jax-richards/,,yes
180,"Becci Crane: North Dakota","Grand Forks, ND, USA",47.9252568,-97.0328547,"Grand Forks","North Dakota","United States",,,"Member Spotlights",custom_link,https://mediatorsbeyondborders.org/raising-the-light-to-justice-member-spotlight-becci-crane/,,yes
181,"Lisa Singh: Ohio","Vandalia, OH, USA",39.8906122,-84.1988308,Vandalia,Ohio,"United States",,,"Member Spotlights",custom_link,https://mediatorsbeyondborders.org/a-starfish-hunter-member-spotlight-lisa-singh/,,yes
182,"Linda Beitz: Chicago","Chicago, IL, USA",41.8781136,-87.6297982,Chicago,Illinois,"United States",,,"Member Spotlights",custom_link,https://mediatorsbeyondborders.org/coach-consultant-and-conflict-specialist-member-spotlight-dr-linda-beitz/,,yes
183,"Laura Roberts: Boulder","Boulder, CO, USA",40.0149856,-105.2705456,Boulder,Colorado,"United States",,,"Member Spotlights",custom_link,https://mediatorsbeyondborders.org/between-restorative-and-immigration-justice-member-spotlight-laura-roberts/,,yes
184,"Larry Schooler: Austin","Austin, TX, USA",30.267153,-97.7430608,Austin,Texas,"United States",,,"Member Spotlights",custom_link,https://mediatorsbeyondborders.org/truth-and-reconciliation-member-spotlight-dr-larry-schooler/,,yes
185,"Sherry Ann Bruckner: Minnesota","Alexandria, Minnesota, USA",45.8848164,-95.3776663,Alexandria,Minnesota,"United States",56308,,"Member Spotlights",custom_link,https://mediatorsbeyondborders.org/discovering-individual-needs-in-conflict-dialogue-member-spotlight-sherry-ann-bruckner/,,yes
186,"Bonny Kaman Li: Solomon Islands","Solomon Islands",-9.64571,160.156194,,,"Solomon Islands",,,"Member Spotlights",custom_link,https://mediatorsbeyondborders.org/education-and-cultural-barriers-member-spotlight-bonny-kaman-li/,,yes
187,"Odeta Inte: Lithuania",Lithuania,55.169438,23.881275,,,Lithuania,,,"Member Spotlights",custom_link,https://mediatorsbeyondborders.org/from-child-protection-to-family-mediation-member-spotlight-odeta-inte/,,yes
188,"Eleane Amador: Nicaragua",Nicaragua,12.865416,-85.207229,,,Nicaragua,,https://mediatorsbeyondborders.org/the-value-of-diverse-community-member-spotlight-eleane-amador/,"Member Spotlights",custom_link,https://mediatorsbeyondborders.org/the-value-of-diverse-community-member-spotlight-eleane-amador/,,yes
189,"Constanza Metzadour: Argentina","Buenos Aires, Argentina",-34.6036844,-58.3815591,"Buenos Aires","Buenos Aires",Argentina,,,"Member Spotlights",custom_link,https://mediatorsbeyondborders.org/always-moving-forward-member-spotlight-constanza-metzadour/,,yes
190,"Nariman Hamo: Syria","Damascus, Syria",33.5138073,36.2765279,Damascus,"Damascus Governorate",Syria,,,"Member Spotlights",custom_link,https://mediatorsbeyondborders.org/from-fighting-for-peace-to-finding-inner-peace-member-spotlight-nariman-hamo/,,yes
191,"Bebhinn McKinley: Belfast","Belfast, UK",54.59728500000001,-5.93012,Belfast,"Northern Ireland","United Kingdom",,,"Member Spotlights",custom_link,https://mediatorsbeyondborders.org/removing-borders-member-spotlight-bebhinn-mckinley/,,yes
192,"Jack DeGruchy: Kelowna","Kelowna, BC, Canada",49.8863235,-119.4965917,Kelowna,"British Columbia",Canada,,,"Member Spotlights",custom_link,https://mediatorsbeyondborders.org/a-wisdom-warrior-member-spotlight-dr-jack-degruchy/,,yes
